{
    "links": {
        "self": "http://www.neowsapp.com/rest/v1/neo/3145507?api_key=iIulBulltgU6a56xZRHN4H3l9WmuAYTsLGpBGhQ2"
    },
    "id": "3145507",
    "neo_reference_id": "3145507",
    "name": "(2002 YD12)",
    "designation": "2002 YD12",
    "nasa_jpl_url": "http://ssd.jpl.nasa.gov/sbdb.cgi?sstr=3145507",
    "absolute_magnitude_h": 21.7,
    "estimated_diameter": {
        "kilometers": {
            "estimated_diameter_min": 0.1214940408,
            "estimated_diameter_max": 0.2716689341
        },
        "meters": {
            "estimated_diameter_min": 121.4940407996,
            "estimated_diameter_max": 271.6689340891
        },
        "miles": {
            "estimated_diameter_min": 0.0754928736,
            "estimated_diameter_max": 0.1688071972
        },
        "feet": {
            "estimated_diameter_min": 398.6025088171,
            "estimated_diameter_max": 891.3023057169
        }
    },
    "is_potentially_hazardous_asteroid": false,
    "close_approach_data": [
        {
            "close_approach_date": "2003-01-04",
            "close_approach_date_full": "2003-Jan-04 02:42",
            "epoch_date_close_approach": 1041648120000,
            "relative_velocity": {
                "kilometers_per_second": "9.1882316517",
                "kilometers_per_hour": "33077.6339461202",
                "miles_per_hour": "20553.1553816879"
            },
            "miss_distance": {
                "astronomical": "0.1473250151",
                "lunar": "57.3094308739",
                "kilometers": "22039508.456677837",
                "miles": "13694715.5225826706"
            },
            "orbiting_body": "Earth"
        },
        {
            "close_approach_date": "2012-12-13",
            "close_approach_date_full": "2012-Dec-13 14:29",
            "epoch_date_close_approach": 1355408940000,
            "relative_velocity": {
                "kilometers_per_second": "16.750377858",
                "kilometers_per_hour": "60301.3602888371",
                "miles_per_hour": "37468.9202305832"
            },
            "miss_distance": {
                "astronomical": "0.4549336263",
                "lunar": "176.9691806307",
                "kilometers": "68057101.485855981",
                "miles": "42288721.9092192978"
            },
            "orbiting_body": "Earth"
        }
    ],
    "orbital_data": {
        "orbit_id": "18",
        "orbit_determination_date": "2017-04-06 09:14:28",
        "first_observation_date": "2002-12-31",
        "last_observation_date": "2003-01-30",
        "data_arc_in_days": 30,
        "observations_used": 99,
        "orbit_uncertainty": "6",
        "minimum_orbit_intersection": ".132643",
        "jupiter_tisserand_invariant": "3.439",
        "epoch_osculation": "2459000.5",
        "eccentricity": ".4997186861282261",
        "semi_major_axis": "2.218828910315266",
        "inclination": "14.72951317354453",
        "ascending_node_longitude": "275.9845505647461",
        "orbital_period": "1207.213687093293",
        "perihelion_distance": "1.110038642509198",
        "perihelion_argument": "193.0965312677707",
        "aphelion_distance": "3.327619178121334",
        "perihelion_time": "2458691.775353155054",
        "mean_anomaly": "92.06396021882723",
        "mean_motion": ".2982073545461544",
        "equinox": "J2000",
        "orbit_class": {
            "orbit_class_type": "AMO",
            "orbit_class_description": "Near-Earth asteroid orbits similar to that of 1221 Amor",
            "orbit_class_range": "1.017 AU < q (perihelion) < 1.3 AU"
        }
    },
    "is_sentry_object": false
}